ORBCOMM FM05            
1 25117U 97084F   24132.71548043  .00008403  00000+0  25406-2 0  9991
2 25117  45.0138 130.9122 0003730 336.9640  23.1042 14.42701528382561
ORBCOMM FM06            
1 25118U 97084G   24132.00038628  .00010140  00000+0  30541-2 0  9994
2 25118  45.0130 134.4949 0002968 332.7586 123.6198 14.42734889383379
ORBCOMM FM07            
1 25119U 97084H   24132.73487965  .00008562  00000+0  25898-2 0  9991
2 25119  45.0126 131.5234 0004589 333.6084  26.4531 14.42664374383477
ORBCOMM FM03            
1 25158U 98007B   24132.63704288  .00007634  00000+0  28390-2 0  9998
2 25158 107.9710  32.0436 0047953 231.4729 128.2105 14.32171536366504
ORBCOMM FM04            
1 25159U 98007C   24132.97465165  .00007859  00000+0  29121-2 0  9996
2 25159 107.9692  35.6719 0043456 228.8819 130.8564 14.32437320366729
ORBCOMM FM17            
1 25413U 98046A   24132.88622293  .00005495  00000+0  20332-2 0  9998
2 25413  44.9951 348.7312 0002155   9.2079 350.8807 14.33152867345561
ORBCOMM FM18            
1 25414U 98046B   24132.66925369  .00008717  00000+0  30226-2 0  9998
2 25414  44.9931 276.8207 0002927  73.2240 286.8928 14.35914155346484
ORBCOMM FM19            
1 25415U 98046C   24132.70789439  .00009016  00000+0  31348-2 0  9999
2 25415  44.9939 278.0513 0001683  68.0380 306.4462 14.35752208346450
